ONEWEB-0271             
1 48989U 21060Y   24174.53982481  .00000092  00000+0  20708-3 0  9995
2 48989  87.9100  13.0252 0002217  82.7807 277.3576 13.16596937144312
ONEWEB-0272             
1 48990U 21060Z   24174.56200925  .00000054  00000+0  10692-3 0  9995
2 48990  87.9103  13.0495 0002134  85.7617 274.3757 13.16595059144262
ONEWEB-0273             
1 48991U 21060AA  24174.58417140 -.00000024  00000+0 -96919-4 0  9993
2 48991  87.9101  13.0319 0001906  81.9442 278.1905 13.16595487144246
ONEWEB-0274             
1 48992U 21060AB  24174.53351035  .00000081  00000+0  17833-3 0  9997
2 48992  87.9108  13.0559 0002282  97.1769 262.9621 13.16594963144276
ONEWEB-0275             
1 48993U 21060AC  24174.59842505  .00000015  00000+0  58931-5 0  9994
2 48993  87.9100  13.0250 0001963  82.5872 277.5482 13.16594370144218
ONEWEB-0276             
1 48994U 21060AD  24174.55566069  .00001001  00000+0  25840-2 0  9995
2 48994  87.9102  13.0295 0002091  80.3466 279.7901 13.16604754144227
ONEWEB-0277             
1 48995U 21060AE  24174.56834007  .00000032  00000+0  49822-4 0  9998
2 48995  87.9100  13.0650 0002344  80.4647 279.6748 13.16595400144218
ONEWEB-0278             
1 48996U 21060AF  24174.55883881  .00000084  00000+0  18727-3 0  9998
2 48996  87.9101  13.0260 0001536  82.0111 278.1195 13.16595367144349
ONEWEB-0279             
1 48997U 21060AG  24174.56676028  .00000005  00000+0 -19336-4 0  9995
2 48997  87.9101  13.0217 0002259  82.8275 277.3113 13.16594648144278
ONEWEB-0280             
1 48998U 21060AH  24174.58100801 -.00000061  00000+0 -19412-3 0  9996
2 48998  87.9102  13.0203 0001810  78.2398 281.8936 13.16594742144214
ONEWEB-0281             
1 48999U 21060AJ  24174.58734315 -.00000047  00000+0 -15676-3 0  9992
2 48999  87.9100  13.0210 0001905  93.3803 266.7546 13.16594667144287
ONEWEB-0282             
1 49000U 21060AK  24174.61742627  .00000079  00000+0  17327-3 0  9993
2 49000  87.9101  13.0318 0002036  78.2930 281.8429 13.16594734145587
ONEWEB-0283             
1 49001U 21060AL  24174.60634380  .00000075  00000+0  16308-3 0  9993
2 49001  87.9099  13.0403 0002116  85.3750 274.7622 13.16594383144278
ONEWEB-0284             
1 49002U 21060AM  24174.60001077  .00000032  00000+0  50606-4 0  9998
2 49002  87.9093  13.0249 0001860  79.5319 280.6022 13.16594028144256
ONEWEB-0285             
1 49075U 21075A   24174.42601916  .00000266  00000+0  70458-3 0  9997
2 49075  87.8941 134.9774 0002016  81.8763 278.2594 13.12447034140147
ONEWEB-0286             
1 49076U 21075B   24174.39752486 -.00000069  00000+0 -22834-3 0  9991
2 49076  87.8941 134.9856 0001790  88.5797 271.5537 13.12445616139491
ONEWEB-0287             
1 49077U 21075C   24174.43230868  .00000058  00000+0  11694-3 0  9990
2 49077  87.9168 150.1441 0001777  83.4290 276.7044 13.17667103138188
ONEWEB-0288             
1 49078U 21075D   24174.38372717 -.00000407  00000+0 -11656-2 0  9992
2 49078  87.8941 134.9928 0001941  80.7983 279.3365 13.12444125140112
ONEWEB-0289             
1 49079U 21075E   24174.84091086  .00001513  00000+0  38688-2 0  9992
2 49079  87.9166 150.0906 0002101  84.5304 275.6067 13.17566977139780
ONEWEB-0290             
1 49080U 21075F   24174.44356239  .00000034  00000+0  54982-4 0  9998
2 49080  87.9167 150.1304 0001811  73.1544 286.9786 13.17625093138173
ONEWEB-0291             
1 49081U 21075G   24174.42749245  .00000043  00000+0  78607-4 0  9990
2 49081  87.9162 150.1542 0001821  88.2904 271.8436 13.17685454138162
ONEWEB-0293             
1 49082U 21075H   24174.45317806  .00000079  00000+0  16932-3 0  9999
2 49082  87.9168 150.1632 0001902  78.2704 281.8640 13.17588092138197
ONEWEB-0294             
1 49083U 21075J   24174.39021749 -.00000279  00000+0 -81057-3 0  9995
2 49083  87.8938 134.9904 0001714  64.0283 296.1022 13.12445072139504
ONEWEB-0295             
1 49084U 21075K   24174.83448327  .00000023  00000+0  27033-4 0  9990
2 49084  87.9168 150.0654 0001620  86.1804 273.9513 13.17582549139168
ONEWEB-0296             
1 49085U 21075L   24174.44698564 -.00000191  00000+0 -56642-3 0  9993
2 49085  87.8944 134.9806 0001359  72.8015 287.3262 13.12441274139518
ONEWEB-0297             
1 49086U 21075M   24174.40157353  .00000111  00000+0  27245-3 0  9993
2 49086  87.8950 134.9961 0002049  85.1782 274.9581 13.12444804140119
ONEWEB-0298             
1 49087U 21075N   24174.45800489  .00000046  00000+0  85783-4 0  9993
2 49087  87.9169 150.1584 0001957  91.5859 268.5496 13.17567585138182
ONEWEB-0299             
1 49088U 21075P   24174.83932791 -.00000707  00000+0 -18559-2 0  9999
2 49088  87.9166 150.0522 0001868  91.5342 268.6003 13.17555829139183
ONEWEB-0300             
1 49089U 21075Q   24174.39344702 -.00000148  00000+0 -44599-3 0  9993
2 49089  87.8938 134.9871 0002421  87.9399 272.2007 13.12445632140132
ONEWEB-0301             
1 49090U 21075R   24174.45348448 -.00000338  00000+0 -97596-3 0  9999
2 49090  87.8940 134.9784 0002334  86.8095 273.3300 13.12443502139505
ONEWEB-0302             
1 49091U 21075S   24174.36426539 -.00000646  00000+0 -18308-2 0  9993
2 49091  87.8930 134.9974 0001797  56.5389 303.5912 13.12435886139475
ONEWEB-0304             
1 49092U 21075T   24174.43390830  .00000055  00000+0  10880-3 0  9996
2 49092  87.9168 150.1483 0001768  83.8430 276.2903 13.17662126138135
ONEWEB-0305             
1 49093U 21075U   24174.42589094 -.00000013  00000+0 -66011-4 0  9992
2 49093  87.9165 150.1367 0001645  94.5965 265.5355 13.17692366138164
ONEWEB-0308             
1 49094U 21075V   24174.43400561  .00000189  00000+0  49059-3 0  9999
2 49094  87.8938 134.9801 0002139  84.4104 275.7269 13.12440493139498
ONEWEB-0309             
1 49095U 21075W   24174.43069293  .00000009  00000+0 -10474-4 0  9995
2 49095  87.9170 150.1404 0001826  69.2377 290.8950 13.17674325138135
ONEWEB-0310             
1 49096U 21075X   24174.44861463 -.00000175  00000+0 -52181-3 0  9991
2 49096  87.8950 134.9855 0002018  79.6771 280.4585 13.12439780140128
ONEWEB-0311             
1 49097U 21075Y   24174.43712797  .00000027  00000+0  37048-4 0  9996
2 49097  87.9168 150.1400 0001733  96.3635 263.7694 13.17648461138186
ONEWEB-0312             
1 49098U 21075Z   24174.83127970  .00000017  00000+0  11837-4 0  9991
2 49098  87.9168 150.0939 0001566  83.0518 277.0791 13.17592913139198
ONEWEB-0313             
1 49099U 21075AA  24174.88469684 -.00000020  00000+0 -85102-4 0  9990
2 49099  87.9169 150.0858 0001722  85.3447 274.7881 13.17680906139217
ONEWEB-0314             
1 49100U 21075AB  24174.87827312 -.00000007  00000+0 -49924-4 0  9995
2 49100  87.9166 150.0445 0001603  94.6540 265.4775 13.17706217139172
ONEWEB-0315             
1 49101U 21075AC  24174.42265521  .00000483  00000+0  13069-2 0  9990
2 49101  87.8939 134.9761 0002148  85.1218 275.0156 13.12442954140109
ONEWEB-0316             
1 49102U 21075AD  24174.38717550 -.00000010  00000+0 -56889-4 0  9997
2 49102  87.9151 119.7498 0001950  87.1986 272.9369 13.18685910141682
ONEWEB-0317             
1 49103U 21075AE  24174.41616273  .00000443  00000+0  11967-2 0  9996
2 49103  87.8939 134.9868 0002415  73.5677 286.5716 13.12445225140121
ONEWEB-0318             
1 49104U 21075AF  24174.38400719 -.00000012  00000+0 -62773-4 0  9996
2 49104  87.9148 119.7439 0001897  89.5165 270.6184 13.18685503141644
ONEWEB-0319             
1 49105U 21075AG  24174.43872174  .00000022  00000+0  24354-4 0  9993
2 49105  87.9168 150.1653 0001625  99.0647 261.0669 13.17639244138169
ONEWEB-0323             
1 49106U 21075AH  24174.40642657  .00000256  00000+0  67707-3 0  9999
2 49106  87.8939 134.9759 0001898  86.1470 273.9875 13.12445252139481
ONEWEB-0329             
1 49107U 21075AJ  24174.44677264  .00000070  00000+0  14628-3 0  9994
2 49107  87.9169 150.1677 0001837  86.9552 273.1790 13.17611349138146
ONEWEB-0330             
1 49108U 21075AK  24174.44837081  .00000071  00000+0  15026-3 0  9994
2 49108  87.9169 150.1679 0001824  82.4919 277.6420 13.17605459138181
ONEWEB-0292             
1 49186U 21083A   24174.86772853  .00000332  00000+0  87538-3 0  9997
2 49186  87.8936 104.4303 0002005  81.8768 278.2589 13.13471536137131
ONEWEB-0303             
1 49187U 21083B   24174.38085307  .00000016  00000+0  69728-5 0  9998
2 49187  87.9148 119.7441 0001977  88.8287 271.3072 13.18685902134452
ONEWEB-0306             
1 49188U 21083C   24174.37136128  .00000052  00000+0  98121-4 0  9994
2 49188  87.9148 119.7335 0002150  77.0402 283.0971 13.18688191134493
ONEWEB-0307             
1 49189U 21083D   24174.86217071  .00000257  00000+0  66768-3 0  9994
2 49189  87.8937 104.4312 0001982  67.0702 293.0636 13.13471640137136
ONEWEB-0320             
1 49190U 21083E   24174.37768630  .00000039  00000+0  65462-4 0  9993
2 49190  87.9150 119.7564 0002038  81.1556 278.9806 13.18685113134451
ONEWEB-0321             
1 49191U 21083F   24174.58723336  .00000006  00000+0 -17046-4 0  9991
2 49191  87.9210  58.6057 0002093  75.5334 284.6032 13.20772079141183
ONEWEB-0322             
1 49192U 21083G   24174.32496804  .00000326  00000+0  85800-3 0  9997
2 49192  87.8936 104.5272 0002332  68.8831 291.2547 13.13469826135768
ONEWEB-0324             
1 49193U 21083H   24174.89460664  .00000003  00000+0 -24140-4 0  9999
2 49193  87.9148 119.6356 0001792  77.6407 282.4925 13.18686129135822
ONEWEB-0325             
1 49194U 21083J   24174.36819579  .00000013  00000+0 -56424-6 0  9998
2 49194  87.9151 119.7538 0002132  80.2692 279.8681 13.18684444134483
ONEWEB-0326             
1 49195U 21083K   24174.38244047  .00000033  00000+0  50508-4 0  9999
2 49195  87.9148 119.7499 0001702  95.2396 264.8930 13.18686323134473
ONEWEB-0327             
1 49196U 21083L   24174.35632276  .00000068  00000+0  13868-3 0  9997
2 49196  87.9148 119.7674 0001885  91.3581 268.7767 13.18688758134491
